[{"OBJECT_NAME":"STARLINK-34735","OBJECT_ID":"2025-165S","EPOCH":"2026-03-09T18:25:19.548768","MEAN_MOTION":15.05649683,"ECCENTRICITY":6.511e-5,"INCLINATION":97.6029,"RA_OF_ASC_NODE":147.3265,"ARG_OF_PERICENTER":183.845,"MEAN_ANOMALY":176.2772,"EPHEMERIS_TYPE":0,"CLASSIFICATION_TYPE":"U","NORAD_CAT_ID":65072,"ELEMENT_SET_NO":999,"REV_AT_EPOCH":3480,"BSTAR":0.00053399856,"MEAN_MOTION_DOT":7.652e-5,"MEAN_MOTION_DDOT":0},{"OBJECT_NAME":"SL-6 R\/B(2)","OBJECT_ID":"1990-055D","EPOCH":"2026-03-09T21:41:59.551872","MEAN_MOTION":15.03595553,"ECCENTRICITY":0.00247741,"INCLINATION":62.7825,"RA_OF_ASC_NODE":253.121,"ARG_OF_PERICENTER":347.1508,"MEAN_ANOMALY":12.8957,"EPHEMERIS_TYPE":0,"CLASSIFICATION_TYPE":"U","NORAD_CAT_ID":20666,"ELEMENT_SET_NO":999,"REV_AT_EPOCH":93822,"BSTAR":0.00020900577,"MEAN_MOTION_DOT":2.688e-5,"MEAN_MOTION_DDOT":0}]
